CTC1_L_00671007-03
1 10062U 24738JT  26075.70040509  .00000000  00000+0  00000-0 0  9997
2 10062  60.0000 180.0000 0000000   0.0000 144.0000  1.97017143    19
CTC1_L_00671007-04
1 10063U 22908XA  26075.70040509  .00000000  00000+0  00000-0 0  9995
2 10063  60.0000 180.0000 0000000   0.0000 180.0000  1.97017143    10
CTC1_L_00671007-05
1 10064U 25682IX  26075.70040509  .00000000  00000+0  00000-0 0  9998
2 10064  60.0000 180.0000 0000000   0.0000 216.0000  1.97017143    11
CTC1_L_00671007-06
1 10065U 25924TE  26075.70040509  .00000000  00000+0  00000-0 0  9998
2 10065  60.0000 180.0000 0000000   0.0000 252.0000  1.97017143    12
CTC1_L_00671007-07
1 10066U 26427EN  26075.70040509  .00000000  00000+0  00000-0 0  9998
2 10066  60.0000 180.0000 0000000   0.0000 288.0000  1.97017143    12
CTC1_L_00671007-08
1 10067U 24371GM  26075.70040509  .00000000  00000+0  00000-0 0  9995
2 10067  60.0000 180.0000 0000000   0.0000 324.0000  1.97017143    14
CTC1_L_00671007-09
1 10068U 22013XZ  26075.70040509  .00000000  00000+0  00000-0 0  9997
2 10068  60.0000 180.0000 0000000   0.0000   0.0000  1.97017143    16
CTC1_L_00671007-10
1 10069U 25350SC  26075.70040509  .00000000  00000+0  00000-0 0  9995
2 10069  60.0000 180.0000 0000000   0.0000  36.0000  1.97017143    16
CTC1_L_00671008-01
1 10070U 25037EY  26075.70040509  .00000000  00000+0  00000-0 0  9999
2 10070  60.0000 210.0000 0000000   0.0000  84.0000  1.97017143    15
CTC1_L_00671008-02
1 10071U 22209DU  26075.70040509  .00000000  00000+0  00000-0 0  9998
2 10071  60.0000 210.0000 0000000   0.0000 120.0000  1.97017143    17
CTC1_L_00671008-03
1 10072U 25168JW  26075.70040509  .00000000  00000+0  00000-0 0  9996
2 10072  60.0000 210.0000 0000000   0.0000 156.0000  1.97017143    17
CTC1_L_00671008-04
1 10073U 24089XD  26075.70040509  .00000000  00000+0  00000-0 0  9998
2 10073  60.0000 210.0000 0000000   0.0000 192.0000  1.97017143    18
CTC1_L_00671008-05
1 10074U 23453IZ  26075.70040509  .00000000  00000+0  00000-0 0  9993
2 10074  60.0000 210.0000 0000000   0.0000 228.0000  1.97017143    19
CTC1_L_00671008-06
1 10075U 23606TO  26075.70040509  .00000000  00000+0  00000-0 0  9994
2 10075  60.0000 210.0000 0000000   0.0000 264.0000  1.97017143    10
CTC1_L_00671008-07
1 10076U 22715VY  26075.70040509  .00000000  00000+0  00000-0 0  9995
2 10076  60.0000 210.0000 0000000   0.0000 300.0000  1.97017143    12
CTC1_L_00671008-08
1 10077U 24280KN  26075.70040509  .00000000  00000+0  00000-0 0  9995
2 10077  60.0000 210.0000 0000000   0.0000 336.0000  1.97017143    12
CTC1_L_00671008-09
1 10078U 26041PV  26075.70040509  .00000000  00000+0  00000-0 0  9993
2 10078  60.0000 210.0000 0000000   0.0000  12.0000  1.97017143    14
CTC1_L_00671008-10
1 10079U 25285PT  26075.70040509  .00000000  00000+0  00000-0 0  9993
2 10079  60.0000 210.0000 0000000   0.0000  48.0000  1.97017143    14
CTC1_L_00671009-01
1 10080U 24016CA  26075.70040509  .00000000  00000+0  00000-0 0  9996
2 10080  60.0000 240.0000 0000000   0.0000  96.0000  1.97017143    12
CTC1_L_00671009-02
1 10081U 23089VG  26075.70040509  .00000000  00000+0  00000-0 0  9996
2 10081  60.0000 240.0000 0000000   0.0000 132.0000  1.97017143    14
CTC1_L_00671009-03
1 10082U 26634UX  26075.70040509  .00000000  00000+0  00000-0 0  9996
2 10082  60.0000 240.0000 0000000   0.0000 168.0000  1.97017143    14
CTC1_L_00671009-04
1 10083U 25030YN  26075.70040509  .00000000  00000+0  00000-0 0  9996
2 10083  60.0000 240.0000 0000000   0.0000 204.0000  1.97017143    16
CTC1_L_00671009-05
1 10084U 24415WE  26075.70040509  .00000000  00000+0  00000-0 0  9993
2 10084  60.0000 240.0000 0000000   0.0000 240.0000  1.97017143    17
CTC1_L_00671009-06
1 10085U 23258XR  26075.70040509  .00000000  00000+0  00000-0 0  9998
2 10085  60.0000 240.0000 0000000   0.0000 276.0000  1.97017143    17
CTC1_L_00671009-07
1 10086U 25008W   26075.70040509  .00000000  00000+0  00000-0 0  9994
2 10086  60.0000 240.0000 0000000   0.0000 312.0000  1.97017143    19
CTC1_L_00671009-08
1 10087U 22441UD  26075.70040509  .00000000  00000+0  00000-0 0  9993
2 10087  60.0000 240.0000 0000000   0.0000 348.0000  1.97017143    19
CTC1_L_00671009-09
1 10088U 23826UP  26075.70040509  .00000000  00000+0  00000-0 0  9992
2 10088  60.0000 240.0000 0000000   0.0000  24.0000  1.97017143    11
CTC1_L_00671009-10
1 10089U 23320XP  26075.70040509  .00000000  00000+0  00000-0 0  9992
2 10089  60.0000 240.0000 0000000   0.0000  60.0000  1.97017143    12
CTC1_L_00671010-01
1 10090U 25719WD  26075.70040509  .00000000  00000+0  00000-0 0  9998
2 10090  60.0000 270.0000 0000000   0.0000 108.0000  1.97017143    10
CTC1_L_00671010-02
1 10091U 24602XM  26075.70040509  .00000000  00000+0  00000-0 0  9999
2 10091  60.0000 270.0000 0000000   0.0000 144.0000  1.97017143    11
CTC1_L_00671010-03
1 10092U 25886PZ  26075.70040509  .00000000  00000+0  00000-0 0  9995
2 10092  60.0000 270.0000 0000000   0.0000 180.0000  1.97017143    12
CTC1_L_00671010-04
1 10093U 24911NK  26075.70040509  .00000000  00000+0  00000-0 0  9994
2 10093  60.0000 270.0000 0000000   0.0000 216.0000  1.97017143    13
CTC1_L_00671010-05
1 10094U 25011JG  26075.70040509  .00000000  00000+0  00000-0 0  9997
2 10094  60.0000 270.0000 0000000   0.0000 252.0000  1.97017143    14
CTC1_L_00671010-06
1 10095U 24779OI  26075.70040509  .00000000  00000+0  00000-0 0  9998
2 10095  60.0000 270.0000 0000000   0.0000 288.0000  1.97017143    14
CTC1_L_00671010-07
1 10096U 22882IN  26075.70040509  .00000000  00000+0  00000-0 0  9992
2 10096  60.0000 270.0000 0000000   0.0000 324.0000  1.97017143    16
CTC1_L_00671010-08
1 10097U 25913MJ  26075.70040509  .00000000  00000+0  00000-0 0  9991
2 10097  60.0000 270.0000 0000000   0.0000   0.0000  1.97017143    18
CTC1_L_00671010-09
1 10098U 23033JU  26075.70040509  .00000000  00000+0  00000-0 0  9993
2 10098  60.0000 270.0000 0000000   0.0000  36.0000  1.97017143    18
CTC1_L_00671010-10
1 10099U 22996MC  26075.70040509  .00000000  00000+0  00000-0 0  9991
2 10099  60.0000 270.0000 0000000   0.0000  72.0000  1.97017143    19
CTC1_L_00671011-01
1 10100U 25437RB  26075.70040509  .00000000  00000+0  00000-0 0  9997
2 10100  60.0000 300.0000 0000000   0.0000 120.0000  1.97017143    10
CTC1_L_00671011-02
1 10101U 24746UX  26075.70040509  .00000000  00000+0  00000-0 0  9990
2 10101  60.0000 300.0000 0000000   0.0000 156.0000  1.97017143    10
CTC1_L_00671011-03
1 10102U 26329PC  26075.70040509  .00000000  00000+0  00000-0 0  9990
2 10102  60.0000 300.0000 0000000   0.0000 192.0000  1.97017143    11
CTC1_L_00671011-04
1 10103U 25260AY  26075.70040509  .00000000  00000+0  00000-0 0  9994
2 10103  60.0000 300.0000 0000000   0.0000 228.0000  1.97017143    12
CTC1_L_00671011-05
1 10104U 24190QS  26075.70040509  .00000000  00000+0  00000-0 0  9996
2 10104  60.0000 300.0000 0000000   0.0000 264.0000  1.97017143    13
CTC1_L_00671011-06
1 10105U 26930CL  26075.70040509  .00000000  00000+0  00000-0 0  9991
2 10105  60.0000 300.0000 0000000   0.0000 300.0000  1.97017143    15
CTC1_L_00671011-07
1 10106U 26026UM  26075.70040509  .00000000  00000+0  00000-0 0  9998
2 10106  60.0000 300.0000 0000000   0.0000 336.0000  1.97017143    15
CTC1_L_00671011-08
1 10107U 25270YX  26075.70040509  .00000000  00000+0  00000-0 0  9999
2 10107  60.0000 300.0000 0000000   0.0000  12.0000  1.97017143    17
CTC1_L_00671011-09
1 10108U 23020O   26075.70040509  .00000000  00000+0  00000-0 0  9991
2 10108  60.0000 300.0000 0000000   0.0000  48.0000  1.97017143    17
CTC1_L_00671011-10
1 10109U 24041BM  26075.70040509  .00000000  00000+0  00000-0 0  9996
2 10109  60.0000 300.0000 0000000   0.0000  84.0000  1.97017143    18
CTC1_L_00671012-01
1 10110U 23845BT  26075.70040509  .00000000  00000+0  00000-0 0  9999
2 10110  60.0000 330.0000 0000000   0.0000 132.0000  1.97017143    17
CTC1_L_00671012-02
1 10111U 26856M   26075.70040509  .00000000  00000+0  00000-0 0  9995
2 10111  60.0000 330.0000 0000000   0.0000 168.0000  1.97017143    17
CTC1_L_00671012-03
1 10112U 25513QX  26075.70040509  .00000000  00000+0  00000-0 0  9995
2 10112  60.0000 330.0000 0000000   0.0000 204.0000  1.97017143    19
CTC1_L_00671012-04
1 10113U 26533LL  26075.70040509  .00000000  00000+0  00000-0 0  9999
2 10113  60.0000 330.0000 0000000   0.0000 240.0000  1.97017143    10
CTC1_L_00671012-05
1 10114U 22219US  26075.70040509  .00000000  00000+0  00000-0 0  9997
2 10114  60.0000 330.0000 0000000   0.0000 276.0000  1.97017143    10
CTC1_L_00671012-06
1 10115U 25903VK  26075.70040509  .00000000  00000+0  00000-0 0  9991
2 10115  60.0000 330.0000 0000000   0.0000 312.0000  1.97017143    12
CTC1_L_00671012-07
1 10116U 25582M   26075.70040509  .00000000  00000+0  00000-0 0  9995
2 10116  60.0000 330.0000 0000000   0.0000 348.0000  1.97017143    12
CTC1_L_00671012-08
1 10117U 23182HV  26075.70040509  .00000000  00000+0  00000-0 0  9990
2 10117  60.0000 330.0000 0000000   0.0000  24.0000  1.97017143    14
CTC1_L_00671012-09
1 10118U 22174GH  26075.70040509  .00000000  00000+0  00000-0 0  9991
2 10118  60.0000 330.0000 0000000   0.0000  60.0000  1.97017143    15
CTC1_L_00671012-10
1 10119U 25404CZ  26075.70040509  .00000000  00000+0  00000-0 0  9991
2 10119  60.0000 330.0000 0000000   0.0000  96.0000  1.97017143    15
